{
  "norad_id": 67980,
  "name": "STARLINK-36882",
  "history": [
    {
      "epoch": "2026-04-11T20:00:01.000224Z",
      "apogee_km": 466.98950708702523,
      "perigee_km": 464.2807420801146,
      "latitude_deg": -57.365774463600836,
      "longitude_deg": -16.072151543986983,
      "height_km": 488.90311011870403,
      "semi_major_axis_km": 6843.772124583569,
      "eccentricity": 0.0001979,
      "inclination_deg": 97.2854,
      "raan_deg": 112.5276,
      "arg_perigee_deg": 79.9454,
      "mean_anomaly_deg": 222.2066,
      "mean_motion_rev_day": 15.33414096
    },
    {
      "epoch": "2026-04-13T06:42:26.769600Z",
      "apogee_km": 466.83208067339547,
      "perigee_km": 464.2577612820005,
      "latitude_deg": 0.00010084125364651607,
      "longitude_deg": 171.8671134644066,
      "height_km": 468.4723870475272,
      "semi_major_axis_km": 6843.681920977698,
      "eccentricity": 0.00018808,
      "inclination_deg": 97.2856,
      "raan_deg": 113.9512,
      "arg_perigee_deg": 81.8957,
      "mean_anomaly_deg": 278.25,
      "mean_motion_rev_day": 15.33444413
    },
    {
      "epoch": "2026-04-14T18:43:41.915136Z",
      "apogee_km": 466.6251135805087,
      "perigee_km": 464.48166974983906,
      "latitude_deg": 2.896780883091585e-05,
      "longitude_deg": -8.445906914978615,
      "height_km": 468.5920682359385,
      "semi_major_axis_km": 6843.690391665174,
      "eccentricity": 0.0001566,
      "inclination_deg": 97.2844,
      "raan_deg": 115.4306,
      "arg_perigee_deg": 86.2107,
      "mean_anomaly_deg": 273.9315,
      "mean_motion_rev_day": 15.33441566
    },
    {
      "epoch": "2026-04-15T18:13:13.089792Z",
      "apogee_km": 466.8397518687434,
      "perigee_km": 464.25557653954,
      "latitude_deg": 3.811157260405028e-06,
      "longitude_deg": -0.8261781346475622,
      "height_km": 468.6888242422924,
      "semi_major_axis_km": 6843.684664204141,
      "eccentricity": 0.0001888,
      "inclination_deg": 97.285,
      "raan_deg": 116.395,
      "arg_perigee_deg": 91.4281,
      "mean_anomaly_deg": 268.7178,
      "mean_motion_rev_day": 15.33443491
    },
    {
      "epoch": "2026-04-16T13:00:49.645728Z",
      "apogee_km": 466.5066144360835,
      "perigee_km": 464.53700943000877,
      "latitude_deg": 5.746331739978961e-05,
      "longitude_deg": 77.26997903682275,
      "height_km": 468.6757336193472,
      "semi_major_axis_km": 6843.658811933045,
      "eccentricity": 0.0001439,
      "inclination_deg": 97.2833,
      "raan_deg": 117.1653,
      "arg_perigee_deg": 92.5689,
      "mean_anomaly_deg": 267.5719,
      "mean_motion_rev_day": 15.3345218
    },
    {
      "epoch": "2026-04-17T23:28:06.929472Z",
      "apogee_km": 466.77788551126287,
      "perigee_km": 464.21562903254016,
      "latitude_deg": -6.449218085048463e-05,
      "longitude_deg": -79.55032746420662,
      "height_km": 468.7001049670692,
      "semi_major_axis_km": 6843.633757271901,
      "eccentricity": 0.0001872,
      "inclination_deg": 97.2832,
      "raan_deg": 118.582,
      "arg_perigee_deg": 94.2192,
      "mean_anomaly_deg": 265.9264,
      "mean_motion_rev_day": 15.33460601
    },
    {
      "epoch": "2026-04-18T18:15:43.696224Z",
      "apogee_km": 466.95138202207727,
      "perigee_km": 464.0647325369173,
      "latitude_deg": -1.2866712123390008e-05,
      "longitude_deg": -1.4526523274297731,
      "height_km": 468.68052576721664,
      "semi_major_axis_km": 6843.645057279497,
      "eccentricity": 0.0002109,
      "inclination_deg": 97.2865,
      "raan_deg": 119.3547,
      "arg_perigee_deg": 92.5379,
      "mean_anomaly_deg": 267.6105,
      "mean_motion_rev_day": 15.33456803
    },
    {
      "epoch": "2026-04-19T17:45:15.647616Z",
      "apogee_km": 467.3018615762903,
      "perigee_km": 463.9867339156626,
      "latitude_deg": -1.7474545616560168e-05,
      "longitude_deg": 6.163825795402182,
      "height_km": 468.7330955733601,
      "semi_major_axis_km": 6843.781297745976,
      "eccentricity": 0.0002422,
      "inclination_deg": 97.2832,
      "raan_deg": 120.3191,
      "arg_perigee_deg": 89.336,
      "mean_anomaly_deg": 270.816,
      "mean_motion_rev_day": 15.33411013
    },
    {
      "epoch": "2026-04-20T14:06:51.616224Z",
      "apogee_km": 466.84309682947514,
      "perigee_km": 464.26042556477387,
      "latitude_deg": 1.0413711299590503e-05,
      "longitude_deg": 60.763596292556734,
      "height_km": 468.6607023101827,
      "semi_major_axis_km": 6843.688761197124,
      "eccentricity": 0.00018869,
      "inclination_deg": 97.284,
      "raan_deg": 121.1549,
      "arg_perigee_deg": 89.9984,
      "mean_anomaly_deg": 270.1475,
      "mean_motion_rev_day": 15.33442114
    },
    {
      "epoch": "2026-04-21T18:18:15.895872Z",
      "apogee_km": 467.0414007315803,
      "perigee_km": 463.9467107681703,
      "latitude_deg": 3.550474068908497e-05,
      "longitude_deg": -2.086700356005849,
      "height_km": 469.0337971992173,
      "semi_major_axis_km": 6843.6310557498755,
      "eccentricity": 0.0002261,
      "inclination_deg": 97.2824,
      "raan_deg": 122.3135,
      "arg_perigee_deg": 106.1771,
      "mean_anomaly_deg": 253.9721,
      "mean_motion_rev_day": 15.33461509
    },
    {
      "epoch": "2026-04-22T17:47:45.784896Z",
      "apogee_km": 467.003449136113,
      "perigee_km": 463.99635508132724,
      "latitude_deg": -4.114102554556902e-05,
      "longitude_deg": 5.53750216228099,
      "height_km": 468.59217667262254,
      "semi_major_axis_km": 6843.63690210872,
      "eccentricity": 0.0002197,
      "inclination_deg": 97.2872,
      "raan_deg": 123.277,
      "arg_perigee_deg": 89.3867,
      "mean_anomaly_deg": 270.7627,
      "mean_motion_rev_day": 15.33459544
    },
    {
      "epoch": "2026-04-22T22:29:39.797088Z",
      "apogee_km": 466.7818563900628,
      "perigee_km": 464.2414940018307,
      "latitude_deg": -1.836662989013466e-05,
      "longitude_deg": -64.93640584278545,
      "height_km": 468.67410529332375,
      "semi_major_axis_km": 6843.648675195946,
      "eccentricity": 0.0001856,
      "inclination_deg": 97.2859,
      "raan_deg": 123.4711,
      "arg_perigee_deg": 92.4102,
      "mean_anomaly_deg": 267.7353,
      "mean_motion_rev_day": 15.33455587
    },
    {
      "epoch": "2026-04-23T23:33:10.209888Z",
      "apogee_km": 466.8008523959943,
      "perigee_km": 464.3898054965066,
      "latitude_deg": 8.950706542014083e-05,
      "longitude_deg": -80.81335534355097,
      "height_km": 468.7836314668485,
      "semi_major_axis_km": 6843.73232894625,
      "eccentricity": 0.00017615,
      "inclination_deg": 97.2846,
      "raan_deg": 124.5,
      "arg_perigee_deg": 93.7637,
      "mean_anomaly_deg": 266.3808,
      "mean_motion_rev_day": 15.33427471
    },
    {
      "epoch": "2026-04-25T17:50:16.541664Z",
      "apogee_km": 466.6626279576449,
      "perigee_km": 464.21810212285254,
      "latitude_deg": -2.4483781589173827e-05,
      "longitude_deg": 4.912788740960752,
      "height_km": 469.0271162223124,
      "semi_major_axis_km": 6843.577365040249,
      "eccentricity": 0.0001786,
      "inclination_deg": 97.284,
      "raan_deg": 126.2391,
      "arg_perigee_deg": 112.9805,
      "mean_anomaly_deg": 247.1626,
      "mean_motion_rev_day": 15.33479555
    },
    {
      "epoch": "2026-04-26T22:01:41.553984Z",
      "apogee_km": 467.0709040887641,
      "perigee_km": 463.97579026015046,
      "latitude_deg": 3.161100348705768e-05,
      "longitude_deg": -57.94316960471993,
      "height_km": 469.21803268092003,
      "semi_major_axis_km": 6843.6603471744575,
      "eccentricity": 0.00022613,
      "inclination_deg": 97.2834,
      "raan_deg": 127.3951,
      "arg_perigee_deg": 112.2473,
      "mean_anomaly_deg": 247.901,
      "mean_motion_rev_day": 15.33451664
    },
    {
      "epoch": "2026-04-27T18:23:16.706976Z",
      "apogee_km": 467.1119268672055,
      "perigee_km": 463.9665732626763,
      "latitude_deg": -2.4344593529296186e-05,
      "longitude_deg": -3.338778443072995,
      "height_km": 468.9480879174411,
      "semi_major_axis_km": 6843.67625006494,
      "eccentricity": 0.0002298,
      "inclination_deg": 97.2839,
      "raan_deg": 128.2321,
      "arg_perigee_deg": 101.013,
      "mean_anomaly_deg": 259.1371,
      "mean_motion_rev_day": 15.33446319
    }
  ]
}